[{"OBJECT_NAME":"WORLDVIEW-3 (WV-3)","OBJECT_ID":"2014-048A","EPOCH":"2026-03-29T04:23:50.080128","MEAN_MOTION":14.84879676,"ECCENTRICITY":0.0001428,"INCLINATION":97.8604,"RA_OF_ASC_NODE":164.1157,"ARG_OF_PERICENTER":154.9143,"MEAN_ANOMALY":205.2141,"EPHEMERIS_TYPE":0,"CLASSIFICATION_TYPE":"U","NORAD_CAT_ID":40115,"ELEMENT_SET_NO":999,"REV_AT_EPOCH":63003,"BSTAR":0.00015646,"MEAN_MOTION_DOT":1.277e-5,"MEAN_MOTION_DDOT":0},{"OBJECT_NAME":"GAOFEN-2","OBJECT_ID":"2014-049A","EPOCH":"2026-03-29T04:10:20.754048","MEAN_MOTION":14.80798188,"ECCENTRICITY":0.0008409,"INCLINATION":98.0187,"RA_OF_ASC_NODE":152.4356,"ARG_OF_PERICENTER":126.1983,"MEAN_ANOMALY":234.0007,"EPHEMERIS_TYPE":0,"CLASSIFICATION_TYPE":"U","NORAD_CAT_ID":40118,"ELEMENT_SET_NO":999,"REV_AT_EPOCH":62739,"BSTAR":1.8378e-5,"MEAN_MOTION_DOT":8.8e-7,"MEAN_MOTION_DDOT":0},{"OBJECT_NAME":"YAOGAN-21","OBJECT_ID":"2014-053A","EPOCH":"2026-03-29T05:14:02.367744","MEAN_MOTION":15.25214733,"ECCENTRICITY":0.0008855,"INCLINATION":97.1585,"RA_OF_ASC_NODE":131.9145,"ARG_OF_PERICENTER":28.0913,"MEAN_ANOMALY":332.0802,"EPHEMERIS_TYPE":0,"CLASSIFICATION_TYPE":"U","NORAD_CAT_ID":40143,"ELEMENT_SET_NO":999,"REV_AT_EPOCH":64276,"BSTAR":0.00029116,"MEAN_MOTION_DOT":7.252e-5,"MEAN_MOTION_DDOT":0},{"OBJECT_NAME":"YAOGAN-22","OBJECT_ID":"2014-063A","EPOCH":"2026-03-29T00:40:05.774304","MEAN_MOTION":13.1552821,"ECCENTRICITY":0.0006313,"INCLINATION":100.7584,"RA_OF_ASC_NODE":238.0077,"ARG_OF_PERICENTER":16.1482,"MEAN_ANOMALY":343.9829,"EPHEMERIS_TYPE":0,"CLASSIFICATION_TYPE":"U","NORAD_CAT_ID":40275,"ELEMENT_SET_NO":999,"REV_AT_EPOCH":54927,"BSTAR":2.0886e-5,"MEAN_MOTION_DOT":-3.9e-7,"MEAN_MOTION_DDOT":0},{"OBJECT_NAME":"ASNARO","OBJECT_ID":"2014-070A","EPOCH":"2026-03-29T05:13:04.728576","MEAN_MOTION":15.19711133,"ECCENTRICITY":0.0006946,"INCLINATION":97.3491,"RA_OF_ASC_NODE":166.4685,"ARG_OF_PERICENTER":101.7678,"MEAN_ANOMALY":258.4337,"EPHEMERIS_TYPE":0,"CLASSIFICATION_TYPE":"U","NORAD_CAT_ID":40298,"ELEMENT_SET_NO":999,"REV_AT_EPOCH":63186,"BSTAR":0.00056448,"MEAN_MOTION_DOT":0.00012007,"MEAN_MOTION_DDOT":0},{"OBJECT_NAME":"YAOGAN-24","OBJECT_ID":"2014-072A","EPOCH":"2026-03-29T05:35:16.238112","MEAN_MOTION":14.76104357,"ECCENTRICITY":0.0014436,"INCLINATION":98.1339,"RA_OF_ASC_NODE":224.9555,"ARG_OF_PERICENTER":154.8542,"MEAN_ANOMALY":205.3373,"EPHEMERIS_TYPE":0,"CLASSIFICATION_TYPE":"U","NORAD_CAT_ID":40310,"ELEMENT_SET_NO":999,"REV_AT_EPOCH":61192,"BSTAR":0.00013205,"MEAN_MOTION_DOT":8.6e-6,"MEAN_MOTION_DDOT":0},{"OBJECT_NAME":"CBERS 4","OBJECT_ID":"2014-079A","EPOCH":"2026-03-29T03:49:59.337120","MEAN_MOTION":14.35571458,"ECCENTRICITY":2.08e-5,"INCLINATION":98.3444,"RA_OF_ASC_NODE":147.5455,"ARG_OF_PERICENTER":69.5518,"MEAN_ANOMALY":290.5691,"EPHEMERIS_TYPE":0,"CLASSIFICATION_TYPE":"U","NORAD_CAT_ID":40336,"ELEMENT_SET_NO":999,"REV_AT_EPOCH":59247,"BSTAR":-7.4638e-6,"MEAN_MOTION_DOT":-6.4e-7,"MEAN_MOTION_DDOT":0},{"OBJECT_NAME":"YAOGAN-26","OBJECT_ID":"2014-088A","EPOCH":"2026-03-29T05:59:18.794112","MEAN_MOTION":15.4413052,"ECCENTRICITY":0.0004389,"INCLINATION":97.0668,"RA_OF_ASC_NODE":90.5128,"ARG_OF_PERICENTER":14.5269,"MEAN_ANOMALY":345.6106,"EPHEMERIS_TYPE":0,"CLASSIFICATION_TYPE":"U","NORAD_CAT_ID":40362,"ELEMENT_SET_NO":999,"REV_AT_EPOCH":62535,"BSTAR":0.00082317,"MEAN_MOTION_DOT":0.00037741,"MEAN_MOTION_DDOT":0},{"OBJECT_NAME":"SMAP","OBJECT_ID":"2015-003A","EPOCH":"2026-03-29T03:34:00.330816","MEAN_MOTION":14.63363305,"ECCENTRICITY":0.0001852,"INCLINATION":98.1308,"RA_OF_ASC_NODE":96.366,"ARG_OF_PERICENTER":99.9325,"MEAN_ANOMALY":260.2086,"EPHEMERIS_TYPE":0,"CLASSIFICATION_TYPE":"U","NORAD_CAT_ID":40376,"ELEMENT_SET_NO":999,"REV_AT_EPOCH":59591,"BSTAR":0.00014061,"MEAN_MOTION_DOT":6.79e-6,"MEAN_MOTION_DDOT":0},{"OBJECT_NAME":"KOMPSAT-3A","OBJECT_ID":"2015-014A","EPOCH":"2026-03-29T05:31:04.803744","MEAN_MOTION":15.49756362,"ECCENTRICITY":0.0064363,"INCLINATION":97.688,"RA_OF_ASC_NODE":74.0003,"ARG_OF_PERICENTER":108.0675,"MEAN_ANOMALY":252.7602,"EPHEMERIS_TYPE":0,"CLASSIFICATION_TYPE":"U","NORAD_CAT_ID":40536,"ELEMENT_SET_NO":999,"REV_AT_EPOCH":60941,"BSTAR":0.00054361,"MEAN_MOTION_DOT":0.00032862,"MEAN_MOTION_DDOT":0},{"OBJECT_NAME":"SENTINEL-2A","OBJECT_ID":"2015-028A","EPOCH":"2026-03-29T05:09:14.080320","MEAN_MOTION":14.30819751,"ECCENTRICITY":0.0001299,"INCLINATION":98.5623,"RA_OF_ASC_NODE":164.2209,"ARG_OF_PERICENTER":95.9455,"MEAN_ANOMALY":264.1876,"EPHEMERIS_TYPE":0,"CLASSIFICATION_TYPE":"U","NORAD_CAT_ID":40697,"ELEMENT_SET_NO":999,"REV_AT_EPOCH":56229,"BSTAR":-3.3642e-5,"MEAN_MOTION_DOT":-1.32e-6,"MEAN_MOTION_DDOT":0},{"OBJECT_NAME":"GAOFEN-8","OBJECT_ID":"2015-030A","EPOCH":"2026-03-29T04:56:04.634880","MEAN_MOTION":15.43129009,"ECCENTRICITY":0.0010338,"INCLINATION":97.694,"RA_OF_ASC_NODE":276.9346,"ARG_OF_PERICENTER":120.6178,"MEAN_ANOMALY":239.6089,"EPHEMERIS_TYPE":0,"CLASSIFICATION_TYPE":"U","NORAD_CAT_ID":40701,"ELEMENT_SET_NO":999,"REV_AT_EPOCH":59910,"BSTAR":0.00024211,"MEAN_MOTION_DOT":0.00010644,"MEAN_MOTION_DDOT":0},{"OBJECT_NAME":"CARBONITE 1 (CBNT-1)","OBJECT_ID":"2015-032D","EPOCH":"2026-03-29T04:26:27.449088","MEAN_MOTION":14.83305859,"ECCENTRICITY":0.0014177,"INCLINATION":97.6482,"RA_OF_ASC_NODE":269.6238,"ARG_OF_PERICENTER":191.7621,"MEAN_ANOMALY":168.3265,"EPHEMERIS_TYPE":0,"CLASSIFICATION_TYPE":"U","NORAD_CAT_ID":40718,"ELEMENT_SET_NO":999,"REV_AT_EPOCH":57748,"BSTAR":0.00021962,"MEAN_MOTION_DOT":1.75e-5,"MEAN_MOTION_DDOT":0},{"OBJECT_NAME":"YAOGAN-27","OBJECT_ID":"2015-040A","EPOCH":"2026-03-29T04:57:35.315136","MEAN_MOTION":13.16065314,"ECCENTRICITY":0.0008765,"INCLINATION":100.1125,"RA_OF_ASC_NODE":78.0752,"ARG_OF_PERICENTER":42.3811,"MEAN_ANOMALY":317.7978,"EPHEMERIS_TYPE":0,"CLASSIFICATION_TYPE":"U","NORAD_CAT_ID":40878,"ELEMENT_SET_NO":999,"REV_AT_EPOCH":50714,"BSTAR":-0.00065014,"MEAN_MOTION_DOT":-2.89e-6,"MEAN_MOTION_DDOT":0},{"OBJECT_NAME":"GAOFEN-9 01","OBJECT_ID":"2015-047A","EPOCH":"2026-03-29T03:57:37.428192","MEAN_MOTION":14.82728828,"ECCENTRICITY":0.0028428,"INCLINATION":97.6375,"RA_OF_ASC_NODE":127.4652,"ARG_OF_PERICENTER":45.1183,"MEAN_ANOMALY":315.2333,"EPHEMERIS_TYPE":0,"CLASSIFICATION_TYPE":"U","NORAD_CAT_ID":40894,"ELEMENT_SET_NO":999,"REV_AT_EPOCH":56833,"BSTAR":0.00015567,"MEAN_MOTION_DOT":1.214e-5,"MEAN_MOTION_DDOT":0},{"OBJECT_NAME":"YAOGAN-28","OBJECT_ID":"2015-064A","EPOCH":"2026-03-29T04:10:43.108320","MEAN_MOTION":15.26328756,"ECCENTRICITY":0.0012305,"INCLINATION":97.2933,"RA_OF_ASC_NODE":228.1872,"ARG_OF_PERICENTER":112.7589,"MEAN_ANOMALY":247.4952,"EPHEMERIS_TYPE":0,"CLASSIFICATION_TYPE":"U","NORAD_CAT_ID":41026,"ELEMENT_SET_NO":999,"REV_AT_EPOCH":57847,"BSTAR":0.00036848,"MEAN_MOTION_DOT":9.521e-5,"MEAN_MOTION_DDOT":0},{"OBJECT_NAME":"YAOGAN-29","OBJECT_ID":"2015-069A","EPOCH":"2026-03-29T03:48:44.457696","MEAN_MOTION":14.83014843,"ECCENTRICITY":4.62e-5,"INCLINATION":98.0121,"RA_OF_ASC_NODE":116.6387,"ARG_OF_PERICENTER":357.2368,"MEAN_ANOMALY":2.8842,"EPHEMERIS_TYPE":0,"CLASSIFICATION_TYPE":"U","NORAD_CAT_ID":41038,"ELEMENT_SET_NO":999,"REV_AT_EPOCH":55876,"BSTAR":5.3859e-5,"MEAN_MOTION_DOT":3.84e-6,"MEAN_MOTION_DDOT":0}]
