WORLDVIEW-3 (WV-3)      
1 40115U 14048A   26088.18321852  .00001277  00000+0  15646-3 0  9993
2 40115  97.8604 164.1157 0001428 154.9143 205.2141 14.84879676630031
GAOFEN-2                
1 40118U 14049A   26088.17385132  .00000088  00000+0  18378-4 0  9992
2 40118  98.0187 152.4356 0008409 126.1983 234.0007 14.80798188627393
YAOGAN-21               
1 40143U 14053A   26088.21808296  .00007252  00000+0  29116-3 0  9992
2 40143  97.1585 131.9145 0008855  28.0913 332.0802 15.25214733642768
YAOGAN-22               
1 40275U 14063A   26088.02784461 -.00000039  00000+0  20886-4 0  9998
2 40275 100.7584 238.0077 0006313  16.1482 343.9829 13.15528210549270
ASNARO                  
1 40298U 14070A   26088.21741584  .00012007  00000+0  56448-3 0  9990
2 40298  97.3491 166.4685 0006946 101.7678 258.4337 15.19711133631867
YAOGAN-24               
1 40310U 14072A   26088.23282683  .00000860  00000+0  13205-3 0  9997
2 40310  98.1339 224.9555 0014436 154.8542 205.3373 14.76104357611922
CBERS 4                 
1 40336U 14079A   26088.15971455 -.00000064  00000+0 -74638-5 0  9992
2 40336  98.3444 147.5455 0000208  69.5518 290.5691 14.35571458592477
YAOGAN-26               
1 40362U 14088A   26088.24952308  .00037741  00000+0  82317-3 0  9998
2 40362  97.0668  90.5128 0004389  14.5269 345.6106 15.44130520625350
SMAP                    
1 40376U 15003A   26088.14861494  .00000679  00000+0  14061-3 0  9996
2 40376  98.1308  96.3660 0001852  99.9325 260.2086 14.63363305595911
KOMPSAT-3A              
1 40536U 15014A   26088.22991671  .00032862  00000+0  54361-3 0  9992
2 40536  97.6880  74.0003 0064363 108.0675 252.7602 15.49756362609413
SENTINEL-2A             
1 40697U 15028A   26088.21474630 -.00000132  00000+0 -33642-4 0  9992
2 40697  98.5623 164.2209 0001299  95.9455 264.1876 14.30819751562290
GAOFEN-8                
1 40701U 15030A   26088.20560920  .00010644  00000+0  24211-3 0  9996
2 40701  97.6940 276.9346 0010338 120.6178 239.6089 15.43129009599101
CARBONITE 1 (CBNT-1)    
1 40718U 15032D   26088.18503992  .00001750  00000+0  21962-3 0  9997
2 40718  97.6482 269.6238 0014177 191.7621 168.3265 14.83305859577489
YAOGAN-27               
1 40878U 15040A   26088.20665874 -.00000289  00000+0 -65014-3 0  9998
2 40878 100.1125  78.0752 0008765  42.3811 317.7978 13.16065314507142
GAOFEN-9 01             
1 40894U 15047A   26088.16501653  .00001214  00000+0  15567-3 0  9997
2 40894  97.6375 127.4652 0028428  45.1183 315.2333 14.82728828568332
YAOGAN-28               
1 41026U 15064A   26088.17411005  .00009521  00000+0  36848-3 0  9990
2 41026  97.2933 228.1872 0012305 112.7589 247.4952 15.26328756578471
YAOGAN-29               
1 41038U 15069A   26088.15884789  .00000384  00000+0  53859-4 0  9999
2 41038  98.0121 116.6387 0000462 357.2368   2.8842 14.83014843558768
